STARLINK-31730          
1 59555U 24074X   26068.12455268 -.00002474  00000+0 -80472-4 0  9994
2 59555  43.0030 347.0799 0001145 251.2892 108.7835 15.27556672105925
FLOCK 4G-25             
1 62646U 25009AP  26068.74572546  .00010373  00000+0  38902-3 0  9990
2 62646  97.4049 151.4141 0000828 316.3151  43.8023 15.27424196 63734
